NORAD_CAT_ID,OBJECT_NAME,OBJECT_TYPE,EPOCH,MEAN_MOTION,ECCENTRICITY,INCLINATION,RA_OF_ASC_NODE,ARG_OF_PERICENTER,MEAN_ANOMALY,BSTAR,MEAN_MOTION_DOT,MEAN_MOTION_DDOT,TLE_LINE0,TLE_LINE1,TLE_LINE2,SEMIMAJOR_AXIS,PERIOD,APOGEE,PERIGEE,DECAYED
50816.0,STARLINK-3342,PAYLOAD,2023-11-28 02:47:50,15.0886235,0.0001801,53.2162,306.6856,109.0043,251.1144,0.0016633,0.00026299,0.0,0 STARLINK-3342,1 50816U 22001P   23332.11655602  .00026299  00000-0  16633-2 0  9993,2 50816  53.2162 306.6856 0001801 109.0043 251.1144 15.08862350105992,6917.812,95.436,540.923,538.431,0.0
50816.0,STARLINK-3342,PAYLOAD,2023-11-28 05:58:36,15.08876003,0.000183,53.2167,306.092,105.2341,254.8853,0.0018695,0.0002962,0.0,0 STARLINK-3342,1 50816U 22001P   23332.24903297  .00029620  00000-0  18695-2 0  9994,2 50816  53.2167 306.0920 0001830 105.2341 254.8853 15.08876003104732,6917.77,95.435,540.901,538.369,0.0
50816.0,STARLINK-3342,PAYLOAD,2023-11-28 21:52:27,15.08864953,0.0002049,53.2165,303.1176,104.8396,255.2823,0.001455,0.0002296,0.0,0 STARLINK-3342,1 50816U 22001P   23332.91143225  .00022960  00000-0  14550-2 0  9991,2 50816  53.2165 303.1176 0002049 104.8396 255.2823 15.08864953104833,6917.804,95.436,541.087,538.252,0.0
50816.0,STARLINK-3342,PAYLOAD,2023-11-29 04:14:00,15.08861125,0.0001834,53.2162,301.9267,107.3009,252.8184,0.0013765,0.000217,0.0,0 STARLINK-3342,1 50816U 22001P   23333.17639103  .00021700  00000-0  13765-2 0  9993,2 50816  53.2162 301.9267 0001834 107.3009 252.8184 15.08861125106155,6917.816,95.436,540.95,538.412,0.0
50816.0,STARLINK-3342,PAYLOAD,2023-11-29 05:49:23,15.08855793,0.0001863,53.2162,301.6304,99.4107,260.7096,0.00095864,0.00015008,0.0,0 STARLINK-3342,1 50816U 22001P   23333.24263125  .00015008  00000-0  95864-3 0  9993,2 50816  53.2162 301.6304 0001863  99.4107 260.7096 15.08855793104888,6917.832,95.437,540.986,538.408,0.0
50816.0,STARLINK-3342,PAYLOAD,2023-11-30 04:04:47,15.08851492,0.0002124,53.2179,297.468,89.1429,270.9806,0.0011458,0.00018,0.0,0 STARLINK-3342,1 50816U 22001P   23334.16999516  .00018000  00000-0  11458-2 0  9996,2 50816  53.2179 297.4680 0002124  89.1429 270.9806 15.08851492106302,6917.845,95.437,541.18,538.241,0.0
50816.0,STARLINK-3342,PAYLOAD,2023-12-01 03:55:34,15.08844837,0.000176,53.2172,293.0068,107.7591,252.3593,0.0011392,0.00017891,0.0,0 STARLINK-3342,1 50816U 22001P   23335.16359663  .00017891  00000-0  11392-2 0  9994,2 50816  53.2172 293.0068 0001760 107.7591 252.3593 15.08844837106457,6917.866,95.437,540.948,538.513,0.0
50816.0,STARLINK-3342,PAYLOAD,2023-12-01 07:06:20,15.08851578,0.0001699,53.217,292.4101,109.3065,250.8111,0.0014017,0.00022098,0.0,0 STARLINK-3342,1 50816U 22001P   23335.29607584  .00022098  00000-0  14017-2 0  9998,2 50816  53.2170 292.4101 0001699 109.3065 250.8111 15.08851578105190,6917.845,95.437,540.885,538.535,0.0
50816.0,STARLINK-3342,PAYLOAD,2023-12-02 00:35:34,15.08860984,0.0001805,53.2176,289.135,108.651,251.4679,0.00071635,0.00011138,0.0,0 STARLINK-3342,1 50816U 22001P   23336.02470906  .00011138  00000-0  71635-3 0  9999,2 50816  53.2176 289.1350 0001805 108.6510 251.4679 15.08860984106582,6917.816,95.436,540.93,538.433,0.0
50816.0,STARLINK-3342,PAYLOAD,2023-12-02 03:46:20,15.08894793,0.0001659,53.2173,288.5478,97.6206,262.4975,0.0021297,0.0003382,0.0,0 STARLINK-3342,1 50816U 22001P   23336.15718577  .00033820  00000-0  21297-2 0  9992,2 50816  53.2173 288.5478 0001659  97.6206 262.4975 15.08894793106608,6917.713,95.434,540.726,538.43,0.0
50816.0,STARLINK-3342,PAYLOAD,2023-12-02 22:50:59,15.08823479,0.0002109,53.2178,284.973,150.7747,209.3364,-0.00048839,-8.049e-05,0.0,0 STARLINK-3342,1 50816U 22001P   23336.95207285 -.00008049  00000-0 -48839-3 0  9998,2 50816  53.2178 284.9730 0002109 150.7747 209.3364 15.08823479105442,6917.931,95.439,541.255,538.337,0.0
50816.0,STARLINK-3342,PAYLOAD,2023-12-03 03:37:08,15.08827126,0.0001854,53.2164,284.0848,124.2777,235.8391,-0.00027226,-4.617e-05,0.0,0 STARLINK-3342,1 50816U 22001P   23337.15079741 -.00004617  00000-0 -27226-3 0  9999,2 50816  53.2164 284.0848 0001854 124.2777 235.8391 15.08827126106755,6917.92,95.438,541.067,538.502,0.0
50816.0,STARLINK-3342,PAYLOAD,2023-12-04 01:52:33,15.08838105,0.0001749,53.2163,279.925,121.9828,238.1335,-1.5697e-05,-5.38e-06,0.0,0 STARLINK-3342,1 50816U 22001P   23338.07816153 -.00000538  00000-0 -15697-4 0  9995,2 50816  53.2163 279.9250 0001749 121.9828 238.1335 15.08838105106896,6917.886,95.438,540.961,538.541,0.0
50816.0,STARLINK-3342,PAYLOAD,2023-12-04 20:57:11,15.08843754,0.0001636,53.2162,276.3571,117.3007,242.8152,0.00041084,6.257e-05,0.0,0 STARLINK-3342,1 50816U 22001P   23338.87304406  .00006257  00000-0  41084-3 0  9996,2 50816  53.2162 276.3571 0001636 117.3007 242.8152 15.08843754105732,6917.869,95.437,540.866,538.602,0.0
50816.0,STARLINK-3342,PAYLOAD,2023-12-05 03:18:43,15.08857163,0.0001589,53.216,275.1681,114.173,245.9429,0.00058196,8.99e-05,0.0,0 STARLINK-3342,1 50816U 22001P   23339.13800052  .00008990  00000-0  58196-3 0  9992,2 50816  53.2160 275.1681 0001589 114.1730 245.9429 15.08857163107051,6917.828,95.436,540.792,538.594,0.0
50816.0,STARLINK-3342,PAYLOAD,2023-12-05 04:54:06,15.08861232,0.0001686,53.216,274.8705,117.7095,242.4068,0.00066315,0.00010288,0.0,0 STARLINK-3342,1 50816U 22001P   23339.20423881  .00010288  00000-0  66315-3 0  9996,2 50816  53.2160 274.8705 0001686 117.7095 242.4068 15.08861232105786,6917.815,95.436,540.847,538.514,0.0
50816.0,STARLINK-3342,PAYLOAD,2023-12-05 19:12:34,15.08854687,0.0001894,53.2157,272.1942,98.651,261.4697,0.00036608,5.545e-05,0.0,0 STARLINK-3342,1 50816U 22001P   23339.80039838  .00005545  00000-0  36608-3 0  9999,2 50816  53.2157 272.1942 0001894  98.6510 261.4697 15.08854687107154,6917.835,95.437,541.011,538.39,0.0
50816.0,STARLINK-3342,PAYLOAD,2023-12-06 03:09:29,15.08851607,0.0001636,53.2159,270.7048,112.5307,247.5858,0.00019136,2.76e-05,0.0,0 STARLINK-3342,1 50816U 22001P   23340.13159667  .00002760  00000-0  19136-3 0  9993,2 50816  53.2159 270.7048 0001636 112.5307 247.5858 15.08851607105927,6917.845,95.437,540.842,538.578,0.0
50816.0,STARLINK-3342,PAYLOAD,2023-12-06 19:03:21,15.08843674,0.0001907,53.2164,267.7374,81.9837,278.1372,7.437e-05,8.96e-06,0.0,0 STARLINK-3342,1 50816U 22001P   23340.79400251  .00000896  00000-0  74370-4 0  9993,2 50816  53.2164 267.7374 0001907  81.9837 278.1372 15.08843674107309,6917.869,95.437,541.053,538.415,0.0
50816.0,STARLINK-3342,PAYLOAD,2023-12-07 03:00:17,15.08841092,0.0001749,53.2167,266.2472,85.9955,274.1237,-1.1593e-05,-4.73e-06,0.0,0 STARLINK-3342,1 50816U 22001P   23341.12520342 -.00000473  00000-0 -11593-4 0  9996,2 50816  53.2167 266.2472 0001749  85.9955 274.1237 15.08841092106075,6917.877,95.437,540.952,538.532,0.0
50816.0,STARLINK-3342,PAYLOAD,2023-12-07 18:54:09,15.08836634,0.0001725,53.217,263.2722,87.8848,272.2342,4.675e-05,4.56e-06,0.0,0 STARLINK-3342,1 50816U 22001P   23341.78760712  .00000456  00000-0  46750-4 0  9997,2 50816  53.2170 263.2722 0001725  87.8848 272.2342 15.08836634107455,6917.891,95.438,540.949,538.562,0.0
50816.0,STARLINK-3342,PAYLOAD,2023-12-08 01:15:41,15.08839295,0.0001755,53.2168,262.084,80.6205,279.4986,0.00010412,1.369e-05,0.0,0 STARLINK-3342,1 50816U 22001P   23342.05256660  .00001369  00000-0  10412-3 0  9999,2 50816  53.2168 262.0840 0001755  80.6205 279.4986 15.08839295106213,6917.883,95.438,540.962,538.533,0.0
50816.0,STARLINK-3342,PAYLOAD,2023-12-08 18:44:55,15.08846979,0.0001739,53.2171,258.8131,85.8409,274.2782,0.00024177,3.563e-05,0.0,0 STARLINK-3342,1 50816U 22001P   23342.78120233  .00003563  00000-0  24177-3 0  9996,2 50816  53.2171 258.8131 0001739  85.8409 274.2782 15.08846979107606,6917.859,95.437,540.927,538.521,0.0
50816.0,STARLINK-3342,PAYLOAD,2023-12-09 18:35:42,15.08843237,0.0001762,53.2169,254.352,86.9392,273.1802,8.6332e-05,1.086e-05,0.0,0 STARLINK-3342,1 50816U 22001P   23343.77480188  .00001086  00000-0  86332-4 0  9994,2 50816  53.2169 254.3520 0001762  86.9392 273.1802 15.08843237107756,6917.87,95.437,540.954,538.517,0.0
50816.0,STARLINK-3342,PAYLOAD,2023-12-10 21:37:16,15.08835807,0.000158,53.2171,249.2968,98.5581,261.559,-4.4383e-05,-9.94e-06,0.0,0 STARLINK-3342,1 50816U 22001P   23344.90088458 -.00000994  00000-0 -44383-4 0  9993,2 50816  53.2171 249.2968 0001580  98.5581 261.5590 15.08835807106641,6917.893,95.438,540.851,538.665,0.0
50816.0,STARLINK-3342,PAYLOAD,2023-12-11 00:48:02,15.08837498,0.0001542,53.2173,248.7005,100.1632,259.9535,1.2135e-05,-9.5e-07,0.0,0 STARLINK-3342,1 50816U 22001P   23345.03336573 -.00000095  00000-0  12135-4 0  9993,2 50816  53.2173 248.7005 0001542 100.1632 259.9535 15.08837498107946,6917.888,95.438,540.82,538.686,0.0
50816.0,STARLINK-3342,PAYLOAD,2023-12-11 21:28:03,15.08837209,0.0001421,53.2168,244.8342,97.3132,262.8022,0.00010834,1.437e-05,0.0,0 STARLINK-3342,1 50816U 22001P   23345.89448381  .00001437  00000-0  10834-3 0  9991,2 50816  53.2168 244.8342 0001421  97.3132 262.8022 15.08837209106795,6917.889,95.438,540.737,538.771,0.0
50816.0,STARLINK-3342,PAYLOAD,2023-12-11 23:03:26,15.08838704,0.0001409,53.2164,244.5366,95.6141,264.5012,0.00011919,1.609e-05,0.0,0 STARLINK-3342,1 50816U 22001P   23345.96072274  .00001609  00000-0  11919-3 0  9999,2 50816  53.2164 244.5366 0001409  95.6141 264.5012 15.08838704106802,6917.884,95.438,540.724,538.775,0.0
50816.0,STARLINK-3342,PAYLOAD,2023-12-12 22:54:13,15.08841139,0.0001404,53.2164,240.0803,99.5697,260.5454,7.4546e-05,8.99e-06,0.0,0 STARLINK-3342,1 50816U 22001P   23346.95432502  .00000899  00000-0  74546-4 0  9999,2 50816  53.2164 240.0803 0001404  99.5697 260.5454 15.08841139106951,6917.877,95.437,540.713,538.771,0.0
50816.0,STARLINK-3342,PAYLOAD,2023-12-13 00:29:36,15.08842008,0.0001364,53.2161,239.7818,93.5121,266.6028,7.7916e-05,9.52e-06,0.0,0 STARLINK-3342,1 50816U 22001P   23347.02056447  .00000952  00000-0  77916-4 0  9992,2 50816  53.2161 239.7818 0001364  93.5121 266.6028 15.08842008108244,6917.874,95.437,540.683,538.796,0.0
